YAOGAN-30 11A           
1 49026U 21065A   26068.71073618  .00004757  00000+0  35664-3 0  9999
2 49026  34.9929 159.1721 0004674 355.4238   4.6427 15.02110690253677
STARLINK-34956          
1 65174U 25175A   26068.61070399  .00000274  00000+0  23235-4 0  9991
2 65174  97.6021 302.5036 0002446  91.1529 268.9978 15.05654373 32599
